[{"OBJECT_NAME":"STARLINK-1954","OBJECT_ID":"2021-009H","EPOCH":"2026-03-09T23:20:25.352160","MEAN_MOTION":15.30849174,"ECCENTRICITY":0.00046184,"INCLINATION":53.0574,"RA_OF_ASC_NODE":8.8654,"ARG_OF_PERICENTER":103.3293,"MEAN_ANOMALY":256.8222,"EPHEMERIS_TYPE":0,"CLASSIFICATION_TYPE":"U","NORAD_CAT_ID":47555,"ELEMENT_SET_NO":999,"REV_AT_EPOCH":28100,"BSTAR":0.0022371791,"MEAN_MOTION_DOT":0.00067883,"MEAN_MOTION_DDOT":0},{"OBJECT_NAME":"STARLINK-31843","OBJECT_ID":"2024-088Q","EPOCH":"2026-03-09T11:11:04.807968","MEAN_MOTION":15.3019014,"ECCENTRICITY":0.00015489,"INCLINATION":53.1604,"RA_OF_ASC_NODE":141.2478,"ARG_OF_PERICENTER":87.5994,"MEAN_ANOMALY":272.5184,"EPHEMERIS_TYPE":0,"CLASSIFICATION_TYPE":"U","NORAD_CAT_ID":59722,"ELEMENT_SET_NO":999,"REV_AT_EPOCH":10364,"BSTAR":1.7556851e-5,"MEAN_MOTION_DOT":1.61e-6,"MEAN_MOTION_DDOT":0}]
